0 ARIANE 40+3 R/B
1 23608U 95033D   13282.53122358  .00001612  00000-0  17080-3 0    39
2 23608 098.3234 125.5987 0019121 004.4702 355.6682 14.90544432986664
0 ARIANE 40+3 R/B
1 23608U 95033D   13283.80669835  .00002142  00000-0  22491-3 0    48
2 23608 098.3236 126.9418 0019172 000.1864 359.9356 14.90545166986859
0 ARIANE 40+3 R/B
1 23608U 95033D   13285.82060084  .00002280  00000-0  23897-3 0    69
2 23608 098.3230 129.0635 0018960 353.6154 006.4818 14.90549787987154
0 ARIANE 40+3 R/B
1 23608U 95033D   13286.82754893  .00002769  00000-0  28876-3 0    73
2 23608 098.3228 130.1244 0018877 350.5845 009.5014 14.90552718987307
0 ARIANE 40+3 R/B
1 23608U 95033D   13287.83449754  .00002531  00000-0  26439-3 0    83
2 23608 098.3223 131.1864 0018726 347.1434 012.9303 14.90563658987450
0 ARIANE 40+3 R/B
1 23608U 95033D   13288.84143651  .00003320  00000-0  34475-3 0    99
2 23608 098.3223 132.2463 0018728 344.0304 016.0319 14.90567564987600
0 ARIANE 40+3 R/B
1 23608U 95033D   13289.84837381  .00003138  00000-0  32614-3 0   102
2 23608 098.3220 133.3074 0018700 340.6536 019.3969 14.90575163987753
0 ARIANE 40+3 R/B
1 23608U 95033D   13291.12382061  .00002129  00000-0  22336-3 0   116
2 23608 098.3217 134.6512 0018651 336.2083 023.8269 14.90582708987940
0 ARIANE 40+3 R/B
1 23608U 95033D   13292.13074685  .00002171  00000-0  22762-3 0   129
2 23608 098.3215 135.7120 0018634 332.8058 027.2180 14.90586049988099
0 ARIANE 40+3 R/B
1 23608U 95033D   13293.47331029  .00002915  00000-0  30342-3 0   135
2 23608 098.3213 137.1266 0018551 328.0353 031.9736 14.90590076988293
0 ARIANE 40+3 R/B
1 23608U 95033D   13294.54735905  .00003116  00000-0  32378-3 0   141
2 23608 098.3214 138.2581 0018467 324.4615 035.5370 14.90593875988455
0 ARIANE 40+3 R/B
1 23608U 95033D   13296.15842624  .00003871  00000-0  40067-3 0   150
2 23608 098.3216 139.9553 0018300 318.9283 041.0555 14.90600813988693
